CYGNUS NG-23            
1 65616U 25208A   25344.92875130  .00014434  00000+0  26509-3 0  9994
2 65616  51.6309 151.4463 0003350 232.8214 127.2469 15.49489378   220
DRAGONFLY               
1 65729U 98067XH  25345.14880257  .00221047  00000+0  16713-2 0  9998
2 65729  51.6246 143.9077 0006575 266.7325  93.2921 15.71180147 12914
1998-067XK              
1 65731U 98067XK  25344.49993669  .00124892  00000+0  12259-2 0  9991
2 65731  51.6281 148.5918 0005180 231.8122 128.2407 15.65134348 12799
RSP-03                  
1 65732U 98067XL  25344.82749272  .00161929  00000+0  14116-2 0  9994
2 65732  51.6264 146.2697 0005892 237.5222 122.5205 15.67939317 12866
GHS-01                  
1 65733U 98067XM  25345.16682995  .00274520  00000+0  18349-2 0  9995
2 65733  51.6283 143.2841 0006984 269.5740  90.4459 15.73916996 12936
YOTSUBA-KULOVER         
1 65941U 98067XN  25344.46947998  .00090413  00000+0  11321-2 0  9995
2 65941  51.6286 151.3857 0001550 232.2961 127.7891 15.59021065  9504
BOTAN                   
1 65942U 98067XP  25344.47987733  .00137252  00000+0  15088-2 0  9995
2 65942  51.6281 150.7055 0003382 220.3642 139.7102 15.62212709  9512
E-KAGAKU-1              
1 65943U 98067XQ  25344.27717868  .00100705  00000+0  12589-2 0  9990
2 65943  51.6298 152.3458 0005250 191.2269 168.8608 15.59004320  9476
HRC MONOBLOCK CAMERA    
1 66052U 98067XR  25345.17214676  .00051254  00000+0  78110-3 0  9998
2 66052  51.6288 149.3227 0003533 176.6815 183.4199 15.53961179  8591
HTV-X1                  
1 66174U 25241A   25344.92875130  .00014434  00000+0  26509-3 0  9991
2 66174  51.6309 151.4463 0003350 232.8214 127.2469 15.49489378   512
SZ-21 MODULE            
1 66515U 25246C   25344.49376162  .00035412  00000+0  39111-3 0  9990
2 66515  41.4772  29.7454 0006278 248.1298 111.8874 15.62311534  4092
SHENZHOU-22             
1 66645U 25272A   25344.85705990  .00034360  00000+0  42991-3 0  9999
2 66645  41.4684  28.1364 0008705  14.9689 345.1405 15.59054125263579
